NORAD_CAT_ID,OBJECT_NAME,OBJECT_TYPE,EPOCH,MEAN_MOTION,ECCENTRICITY,INCLINATION,RA_OF_ASC_NODE,ARG_OF_PERICENTER,MEAN_ANOMALY,BSTAR,MEAN_MOTION_DOT,MEAN_MOTION_DDOT,TLE_LINE0,TLE_LINE1,TLE_LINE2,SEMIMAJOR_AXIS,PERIOD,APOGEE,PERIGEE,DECAYED
55395.0,STARLINK-5274,PAYLOAD,2024-08-12 14:09:48,14.98331965,0.0002663,70.0006,71.8415,256.7833,103.3029,8.9127e-05,9.71e-06,0.0,0 STARLINK-5274,1 55395U 23014E   24225.59014135  .00000971  00000-0  89127-4 0  9998,2 55395  70.0006  71.8415 0002663 256.7833 103.3029 14.98331965 86066,6950.187,96.107,573.903,570.201,0.0
55395.0,STARLINK-5274,PAYLOAD,2024-08-12 22:10:27,14.98340948,0.0002972,70.0005,71.0009,268.029,92.0528,0.00014977,1.695e-05,0.0,0 STARLINK-5274,1 55395U 23014E   24225.92393365  .00001695  00000-0  14977-3 0  9994,2 55395  70.0005  71.0009 0002972 268.0290  92.0528 14.98340948 86117,6950.159,96.106,574.09,569.958,0.0
55395.0,STARLINK-5274,PAYLOAD,2024-08-12 23:46:36,14.98338761,0.0002688,70.0004,70.8314,258.3625,101.7232,0.00015071,1.706e-05,0.0,0 STARLINK-5274,1 55395U 23014E   24225.99069452  .00001706  00000-0  15071-3 0  9997,2 55395  70.0004  70.8314 0002688 258.3625 101.7232 14.98338761 85186,6950.166,96.106,573.899,570.163,0.0
55395.0,STARLINK-5274,PAYLOAD,2024-08-13 12:35:43,14.98306239,0.0002858,70.0016,69.4863,271.2754,88.8077,-0.00019288,-2.392e-05,0.0,0 STARLINK-5274,1 55395U 23014E   24226.52480794 -.00002392  00000-0 -19288-3 0  9991,2 55395  70.0016  69.4863 0002858 271.2754  88.8077 14.98306239 85264,6950.266,96.109,574.118,570.145,0.0
55395.0,STARLINK-5274,PAYLOAD,2024-08-13 22:12:32,14.98301365,0.0003397,70.0008,68.4766,265.9549,94.1222,-0.00028324,-3.469e-05,0.0,0 STARLINK-5274,1 55395U 23014E   24226.92537880 -.00003469  00000-0 -28324-3 0  9991,2 55395  70.0008  68.4766 0003397 265.9549  94.1222 14.98301365 86265,6950.281,96.109,574.507,569.785,0.0
55395.0,STARLINK-5274,PAYLOAD,2024-08-13 23:48:41,14.98297442,0.000339,69.9993,68.3071,263.7484,96.3289,-0.00030887,-3.773e-05,0.0,0 STARLINK-5274,1 55395U 23014E   24226.99214300 -.00003773  00000-0 -30887-3 0  9992,2 55395  69.9993  68.3071 0003390 263.7484  96.3289 14.98297442 85334,6950.294,96.109,574.515,569.802,0.0
55395.0,STARLINK-5274,PAYLOAD,2024-08-14 06:13:12,14.98324023,0.0003441,69.9942,67.6338,267.6435,92.433,-0.00026753,-3.283e-05,0.0,0 STARLINK-5274,1 55395U 23014E   24227.25916879 -.00003283  00000-0 -26753-3 0  9995,2 55395  69.9942  67.6338 0003441 267.6435  92.4330 14.98324023 85376,6950.211,96.107,574.468,569.685,0.0
55395.0,STARLINK-5274,PAYLOAD,2024-08-14 14:13:52,14.98319263,0.0003656,70.0003,66.7925,265.0188,95.0554,-6.9115e-05,-9.17e-06,0.0,0 STARLINK-5274,1 55395U 23014E   24227.59296906 -.00000917  00000-0 -69115-4 0  9995,2 55395  70.0003  66.7925 0003656 265.0188  95.0554 14.98319263 86361,6950.226,96.108,574.632,569.55,0.0
55395.0,STARLINK-5274,PAYLOAD,2024-08-14 19:02:15,14.98331988,0.0002904,69.9994,66.2874,265.2818,94.801,7.5825e-05,8.12e-06,0.0,0 STARLINK-5274,1 55395U 23014E   24227.79323925  .00000812  00000-0  75825-4 0  9996,2 55395  69.9994  66.2874 0002904 265.2818  94.8010 14.98331988 85453,6950.187,96.107,574.07,570.033,0.0
55395.0,STARLINK-5274,PAYLOAD,2024-08-14 22:14:31,14.98336796,0.0002984,69.9991,65.9508,265.5765,94.5053,4.5092e-05,4.45e-06,0.0,0 STARLINK-5274,1 55395U 23014E   24227.92675741  .00000445  00000-0  45092-4 0  9992,2 55395  69.9991  65.9508 0002984 265.5765  94.5053 14.98336796 86415,6950.172,96.107,574.111,569.963,0.0
55395.0,STARLINK-5274,PAYLOAD,2024-08-14 23:50:39,14.98342377,0.0003281,69.9983,65.7815,269.3747,90.7036,9.0865e-05,9.92e-06,0.0,0 STARLINK-5274,1 55395U 23014E   24227.99351263  .00000992  00000-0  90865-4 0  9994,2 55395  69.9983  65.7815 0003281 269.3747  90.7036 14.98342377 85485,6950.155,96.106,574.3,569.739,0.0
55395.0,STARLINK-5274,PAYLOAD,2024-08-15 06:15:11,14.98342467,0.0003277,69.9982,65.108,267.7419,92.3365,0.00010503,1.161e-05,0.0,0 STARLINK-5274,1 55395U 23014E   24228.26055241  .00001161  00000-0  10503-3 0  9991,2 55395  69.9982  65.1080 0003277 267.7419  92.3365 14.98342467 86467,6950.154,96.106,574.297,569.742,0.0
55395.0,STARLINK-5274,PAYLOAD,2024-08-15 19:04:16,14.98309874,0.000398,69.9981,63.7606,272.3262,87.7441,0.00077988,9.22e-05,0.0,0 STARLINK-5274,1 55395U 23014E   24228.79464035  .00009220  00000-0  77988-3 0  9998,2 55395  69.9981  63.7606 0003980 272.3262  87.7441 14.98309874 85606,6950.255,96.108,574.886,569.354,0.0
55395.0,STARLINK-5274,PAYLOAD,2024-08-15 22:16:33,14.98311159,0.0003885,69.9981,63.4234,272.8572,87.2142,0.00082863,9.804e-05,0.0,0 STARLINK-5274,1 55395U 23014E   24228.92816136  .00009804  00000-0  82863-3 0  9992,2 55395  69.9981  63.4234 0003885 272.8572  87.2142 14.98311159 86561,6950.251,96.108,574.816,569.416,0.0
55395.0,STARLINK-5274,PAYLOAD,2024-08-16 22:18:32,14.98346682,0.000319,69.9988,60.9002,259.9029,100.1771,7.9572e-05,8.57e-06,0.0,0 STARLINK-5274,1 55395U 23014E   24229.92954789  .00000857  00000-0  79572-4 0  9993,2 55395  69.9988  60.9002 0003190 259.9029 100.1771 14.98346682 85779,6950.141,96.106,574.223,569.789,0.0
55395.0,STARLINK-5274,PAYLOAD,2024-08-17 12:43:45,14.98340871,0.0002965,69.9978,59.3859,256.9299,103.1529,-8.9094e-05,-1.156e-05,0.0,0 STARLINK-5274,1 55395U 23014E   24230.53038992 -.00001156  00000-0 -89094-4 0  9996,2 55395  69.9978  59.3859 0002965 256.9299 103.1529 14.98340871 85863,6950.159,96.106,574.085,569.964,0.0
55395.0,STARLINK-5274,PAYLOAD,2024-08-18 12:45:46,14.98331391,0.0003373,69.9982,56.86,264.8282,95.2492,8.6778e-05,9.43e-06,0.0,0 STARLINK-5274,1 55395U 23014E   24231.53178286  .00000943  00000-0  86778-4 0  9995,2 55395  69.9982  56.8600 0003373 264.8282  95.2492 14.98331391 86013,6950.189,96.107,574.398,569.709,0.0
55395.0,STARLINK-5274,PAYLOAD,2024-08-18 22:22:33,14.98338546,0.0003185,69.9989,55.8508,262.4342,97.6455,0.0001405,1.584e-05,0.0,0 STARLINK-5274,1 55395U 23014E   24231.93233678  .00001584  00000-0  14050-3 0  9991,2 55395  69.9989  55.8508 0003185 262.4342  97.6455 14.98338546 87013,6950.166,96.106,574.245,569.818,0.0
55395.0,STARLINK-5274,PAYLOAD,2024-08-19 20:48:27,14.98326863,0.0002977,69.9994,53.495,259.1135,100.9689,4.4875e-05,4.42e-06,0.0,0 STARLINK-5274,1 55395U 23014E   24232.86698585  .00000442  00000-0  44875-4 0  9997,2 55395  69.9994  53.4950 0002977 259.1135 100.9689 14.98326863 86212,6950.203,96.107,574.137,569.999,0.0
55395.0,STARLINK-5274,PAYLOAD,2024-08-20 11:13:39,14.98335955,0.0002975,69.9994,51.9788,261.3686,98.7136,3.2477e-05,2.95e-06,0.0,0 STARLINK-5274,1 55395U 23014E   24233.46782011  .00000295  00000-0  32477-4 0  9993,2 55395  69.9994  51.9788 0002975 261.3686  98.7136 14.98335955 86301,6950.174,96.107,574.107,569.972,0.0
55395.0,STARLINK-5274,PAYLOAD,2024-08-20 14:25:55,14.98336553,0.0003008,69.9992,51.6423,261.1139,98.968,3.1421e-05,2.82e-06,0.0,0 STARLINK-5274,1 55395U 23014E   24233.60133919  .00000282  00000-0  31421-4 0  9990,2 55395  69.9992  51.6423 0003008 261.1139  98.9680 14.98336553 87268,6950.173,96.107,574.128,569.947,0.0
55395.0,STARLINK-5274,PAYLOAD,2024-08-21 12:51:49,14.98325786,0.0003007,69.9997,49.2859,262.9136,97.1681,1.9762e-05,1.43e-06,0.0,0 STARLINK-5274,1 55395U 23014E   24234.53598509  .00000143  00000-0  19762-4 0  9993,2 55395  69.9997  49.2859 0003007 262.9136  97.1681 14.98325786 86463,6950.206,96.107,574.161,569.981,0.0
55395.0,STARLINK-5274,PAYLOAD,2024-08-21 14:27:57,14.9832577,0.0003009,69.9997,49.1176,262.9392,97.1425,1.8116e-05,1.23e-06,0.0,0 STARLINK-5274,1 55395U 23014E   24234.60274526  .00000123  00000-0  18116-4 0  9991,2 55395  69.9997  49.1176 0003009 262.9392  97.1425 14.98325770 87415,6950.206,96.107,574.162,569.98,0.0
55395.0,STARLINK-5274,PAYLOAD,2024-08-21 22:28:37,14.98328013,0.0002995,69.9998,48.2759,262.2582,97.8237,3.9372e-05,3.77e-06,0.0,0 STARLINK-5274,1 55395U 23014E   24234.93654379  .00000377  00000-0  39372-4 0  9993,2 55395  69.9998  48.2759 0002995 262.2582  97.8237 14.98328013 87466,6950.199,96.107,574.146,569.982,0.0
55395.0,STARLINK-5274,PAYLOAD,2024-08-22 04:53:09,14.98336513,0.0003046,69.9997,47.6028,268.0077,92.0733,0.00011964,1.335e-05,0.0,0 STARLINK-5274,1 55395U 23014E   24235.20357648  .00001335  00000-0  11964-3 0  9994,2 55395  69.9997  47.6028 0003046 268.0077  92.0733 14.98336513 86560,6950.173,96.107,574.155,569.921,0.0
